ORBCOMM-X               
1 21576U 91050C   25176.14197365  .00000208  00000+0  74542-4 0  9998
2 21576  98.3433 242.5791 0004273 146.6115 213.5345 14.43267776783269
ORBCOMM FM01            
1 23545U 95017A   25176.79215182  .00003449  00000+0  36441-3 0  9997
2 23545  69.9636  52.6768 0005316 281.0572  78.9984 14.90148415613792
ORBCOMM FM02            
1 23546U 95017B   25176.12607340  .00003730  00000+0  38498-3 0  9993
2 23546  69.9655  73.7039 0006695 285.5023  74.5393 14.91015704613342
ORBCOMM FM08            
1 25112U 97084A   25176.88683792  .00000853  00000+0  27849-3 0  9999
2 25112  45.0151 326.1021 0006127 279.4808  80.5351 14.45832588442637
ORBCOMM FM10            
1 25113U 97084B   25176.73101587  .00000781  00000+0  25950-3 0  9992
2 25113  45.0164 329.2455 0005288 243.2781 116.7529 14.45619938617751
ORBCOMM FM11            
1 25114U 97084C   25177.49734613  .00000788  00000+0  26287-3 0  9990
2 25114  45.0147 326.2173 0006070 249.6995 110.3204 14.45370377442852
ORBCOMM FM12            
1 25115U 97084D   25176.69939665  .00000745  00000+0  25065-3 0  9992
2 25115  45.0158 329.7946 0005140 241.5197 118.5137 14.45390723442507
ORBCOMM FM09            
1 25116U 97084E   25177.49280526  .00000763  00000+0  25630-3 0  9995
2 25116  45.0162 326.9306 0006642 238.3541 121.6662 14.45267530442852
